[{"OBJECT_NAME":"ION SCV-004","OBJECT_ID":"2022-002K","EPOCH":"2026-03-09T16:32:03.244416","MEAN_MOTION":15.29369331,"ECCENTRICITY":0.00072157,"INCLINATION":97.2961,"RA_OF_ASC_NODE":128.2294,"ARG_OF_PERICENTER":1.6783,"MEAN_ANOMALY":358.448,"EPHEMERIS_TYPE":0,"CLASSIFICATION_TYPE":"U","NORAD_CAT_ID":50993,"ELEMENT_SET_NO":999,"REV_AT_EPOCH":23008,"BSTAR":0.00023198467,"MEAN_MOTION_DOT":6.538e-5,"MEAN_MOTION_DDOT":0},{"OBJECT_NAME":"STARLINK-32485","OBJECT_ID":"2024-224E","EPOCH":"2026-03-09T22:53:03.221664","MEAN_MOTION":15.27573383,"ECCENTRICITY":9.87e-5,"INCLINATION":42.9999,"RA_OF_ASC_NODE":159.7967,"ARG_OF_PERICENTER":285.9967,"MEAN_ANOMALY":74.0775,"EPHEMERIS_TYPE":0,"CLASSIFICATION_TYPE":"U","NORAD_CAT_ID":62143,"ELEMENT_SET_NO":999,"REV_AT_EPOCH":7205,"BSTAR":0.000941515,"MEAN_MOTION_DOT":0.00025731,"MEAN_MOTION_DDOT":0}]
